API VERSION: 1.2
API SOURCE: NASA/JPL Horizons API



*******************************************************************************
Ephemeris / API_USER Wed Apr  1 23:12:35 2026 Pasadena, USA      / Horizons
*******************************************************************************
Target body name: Artemis II (spacecraft) (-1024) {source: Artemis_II_merged}
Center body name: Earth (399)                     {source: DE441}
Center-site name: BODY CENTER
*******************************************************************************
Start time      : A.D. 2026-Apr-02 02:00:00.0000 TDB
Stop  time      : A.D. 2026-Apr-10 23:00:00.0000 TDB
Step-size       : 10 minutes
*******************************************************************************
Center geodetic : 0.0, 0.0, 0.0                   {E-lon(deg),Lat(deg),Alt(km)}
Center cylindric: 0.0, 0.0, 0.0                   {E-lon(deg),Dxy(km),Dz(km)}
Center radii    : 6378.137, 6378.137, 6356.752 km {Equator_a, b, pole_c}
Output units    : KM-S
Calendar mode   : Mixed Julian/Gregorian
Output type     : GEOMETRIC cartesian states
Output format   : 3 (position, velocity, LT, range, range-rate)
EOP file        : eop.260401.p260628
EOP coverage    : DATA-BASED 1962-JAN-20 TO 2026-APR-01. PREDICTS-> 2026-JUN-27
Reference frame : ICRF
*******************************************************************************
JDTDB
   X     Y     Z
   VX    VY    VZ
   LT    RG    RR
*******************************************************************************
$$SOE
2461139.000000000 = A.D. 2026-Apr-08 12:00:00.0000 TDB 
 X =-9.846209064635418E+04 Y =-2.807947214787955E+05 Z =-1.626949718731182E+05
 VX= 3.957255229523969E-01 VY= 6.067618606198950E-01 VZ= 2.810478535137008E-01
 LT= 1.131220616982954E+00 RG= 3.391314093055964E+05 RR=-7.521112925323390E-01
2461139.006944444 = A.D. 2026-Apr-08 12:10:00.0000 TDB 
 X =-9.822443422742149E+04 Y =-2.804301757938554E+05 Z =-1.625260532535541E+05
 VX= 3.964624868077677E-01 VY= 6.083913401412706E-01 VZ= 2.820147558434152E-01
 LT= 1.129713393189160E+00 RG= 3.386795549796987E+05 RR=-7.540707296847868E-01
2461139.013888889 = A.D. 2026-Apr-08 12:20:00.0000 TDB 
 X =-9.798633572407758E+04 Y =-2.800646507674009E+05 Z =-1.623565535115083E+05
 VX= 3.971991411915813E-01 VY= 6.100263358042116E-01 VZ= 2.829849311713794E-01
 LT= 1.128202242178769E+00 RG= 3.382265233038845E+05 RR=-7.560357973019350E-01
2461139.020833333 = A.D. 2026-Apr-08 12:30:00.0000 TDB 
 X =-9.774779531566784E+04 Y =-2.796981430834563E+05 Z =-1.621864706782642E+05
 VX= 3.979355071865155E-01 VY= 6.116668686523846E-01 VZ= 2.839583959291490E-01
 LT= 1.126687152652626E+00 RG= 3.377723108907519E+05 RR=-7.580065258548353E-01
2461139.027777778 = A.D. 2026-Apr-08 12:40:00.0000 TDB 
 X =-9.750881316896323E+04 Y =-2.793306494132864E+05 Z =-1.620158027751738E+05
 VX= 3.986716056259442E-01 VY= 6.133129601732762E-01 VZ= 2.849351667922905E-01
 LT= 1.125168113250219E+00 RG= 3.373169143345055E+05 RR=-7.599829461858816E-01
2461139.034722222 = A.D. 2026-Apr-08 12:50:00.0000 TDB 
 X =-9.726938943830838E+04 Y =-2.789621664151317E+05 Z =-1.618445478135099E+05
 VX= 3.994074571014015E-01 VY= 6.149646322968109E-01 VZ= 2.859152606825502E-01
 LT= 1.123645112548940E+00 RG= 3.368603302107335E+05 RR=-7.619650895109598E-01
2461139.041666667 = A.D. 2026-Apr-08 13:00:00.0000 TDB 
 X =-9.702952426572319E+04 Y =-2.785926907338776E+05 Z =-1.616727037942900E+05
 VX= 4.001430821417596E-01 VY= 6.166219076676080E-01 VZ= 2.868986948913314E-01
 LT= 1.122118139063069E+00 RG= 3.364025550761034E+05 RR=-7.639529877560111E-01
2461139.048611111 = A.D. 2026-Apr-08 13:10:00.0000 TDB 
 X =-9.678921778120984E+04 Y =-2.782222190010456E+05 Z =-1.615002687082462E+05
 VX= 4.008785003214269E-01 VY= 6.182848082552693E-01 VZ= 2.878854864405342E-01
 LT= 1.120587181244077E+00 RG= 3.359435854684533E+05 RR=-7.659466718418587E-01
2461139.055555556 = A.D. 2026-Apr-08 13:20:00.0000 TDB 
 X =-9.654847010265113E+04 Y =-2.778507478341591E+05 Z =-1.613272405355069E+05
 VX= 4.016137320873566E-01 VY= 6.199533581684219E-01 VZ= 2.888756533865188E-01
 LT= 1.119052227478349E+00 RG= 3.354834179061094E+05 RR=-7.679461751682944E-01
2461139.062500000 = A.D. 2026-Apr-08 13:30:00.0000 TDB 
 X =-9.630728133608791E+04 Y =-2.774782738366986E+05 Z =-1.611536172455490E+05
 VX= 4.023487969311323E-01 VY= 6.216275808219860E-01 VZ= 2.898692135079562E-01
 LT= 1.117513266087337E+00 RG= 3.350220488879309E+05 RR=-7.699515301103894E-01
2461139.069444444 = A.D. 2026-Apr-08 13:40:00.0000 TDB 
 X =-9.606565157582438E+04 Y =-2.771047935977976E+05 Z =-1.609793967970309E+05
 VX= 4.030837143146555E-01 VY= 6.233075003647234E-01 VZ= 2.908661849688848E-01
 LT= 1.115970285326633E+00 RG= 3.345594748930325E+05 RR=-7.719627697864072E-01
2461139.076388889 = A.D. 2026-Apr-08 13:50:00.0000 TDB 
 X =-9.582358090455011E+04 Y =-2.767303036919675E+05 Z =-1.608045771376368E+05
 VX= 4.038185034921472E-01 VY= 6.249931413892930E-01 VZ= 2.918665861855991E-01
 LT= 1.114423273385156E+00 RG= 3.340956923805418E+05 RR=-7.739799277023875E-01
2461139.083333333 = A.D. 2026-Apr-08 14:00:00.0000 TDB 
 X =-9.558106939346346E+04 Y =-2.763548006788294E+05 Z =-1.606291562039244E+05
 VX= 4.045531835145249E-01 VY= 6.266845289356486E-01 VZ= 2.928704358294803E-01
 LT= 1.112872218384375E+00 RG= 3.336306977893646E+05 RR=-7.760030377575876E-01
2461139.090277778 = A.D. 2026-Apr-08 14:10:00.0000 TDB 
 X =-9.533811710239144E+04 Y =-2.759782811028450E+05 Z =-1.604531319211719E+05
 VX= 4.052877732385207E-01 VY= 6.283816884990281E-01 VZ= 2.938777528308966E-01
 LT= 1.111317108377515E+00 RG= 3.331644875379477E+05 RR=-7.780321342555924E-01
2461139.097222222 = A.D. 2026-Apr-08 14:20:00.0000 TDB 
 X =-9.509472407986381E+04 Y =-2.756007414929805E+05 Z =-1.602765022031914E+05
 VX= 4.060222915040567E-01 VY= 6.300846462971494E-01 VZ= 2.948885565067460E-01
 LT= 1.109757931348481E+00 RG= 3.326970580239563E+05 RR=-7.800672522377730E-01
2461139.104166667 = A.D. 2026-Apr-08 14:30:00.0000 TDB 
 X =-9.485089036339549E+04 Y =-2.752221783626966E+05 Z =-1.600992649522963E+05
 VX= 4.067567562308970E-01 VY= 6.317934278627180E-01 VZ= 2.959028659015439E-01
 LT= 1.108194675212134E+00 RG= 3.322284056243572E+05 RR=-7.821084257417414E-01
2461139.111111111 = A.D. 2026-Apr-08 14:40:00.0000 TDB 
 X =-9.460661597935582E+04 Y =-2.748425882093032E+05 Z =-1.599214180589682E+05
 VX= 4.074911862704473E-01 VY= 6.335080609085109E-01 VZ= 2.969207011316550E-01
 LT= 1.106627327811932E+00 RG= 3.317585266947109E+05 RR=-7.841556913515109E-01
2461139.118055556 = A.D. 2026-Apr-08 14:50:00.0000 TDB 
 X =-9.436190094322215E+04 Y =-2.744619675139113E+05 Z =-1.597429594018057E+05
 VX= 4.082255995485808E-01 VY= 6.352285724449974E-01 VZ= 2.979420820338984E-01
 LT= 1.105055876920042E+00 RG= 3.312874175692049E+05 RR=-7.862090846279085E-01
2461139.125000000 = A.D. 2026-Apr-08 15:00:00.0000 TDB 
 X =-9.411674525966044E+04 Y =-2.740803127411225E+05 Z =-1.595638868473463E+05
 VX= 4.089600140064018E-01 VY= 6.369549902298226E-01 VZ= 2.989670288496733E-01
 LT= 1.103480310236354E+00 RG= 3.308150745603592E+05 RR=-7.882686419077114E-01
2461139.131944444 = A.D. 2026-Apr-08 15:10:00.0000 TDB 
 X =-9.387114892262306E+04 Y =-2.736976203387456E+05 Z =-1.593841982499034E+05
 VX= 4.096944474161895E-01 VY= 6.386873424797851E-01 VZ= 2.999955620869090E-01
 LT= 1.101900615387619E+00 RG= 3.303414939587667E+05 RR=-7.903343999458652E-01
2461139.138888889 = A.D. 2026-Apr-08 15:20:00.0000 TDB 
 X =-9.362511191544798E+04 Y =-2.733138867375214E+05 Z =-1.592038914514038E+05
 VX= 4.104289173864263E-01 VY= 6.404256578725722E-01 VZ= 3.010277025243022E-01
 LT= 1.100316779926598E+00 RG= 3.298666720328400E+05 RR=-7.924063959203159E-01
2461139.145833333 = A.D. 2026-Apr-08 15:30:00.0000 TDB 
 X =-9.337863421095506E+04 Y =-2.729291083508424E+05 Z =-1.590229642812244E+05
 VX= 4.111634413976915E-01 VY= 6.421699655992271E-01 VZ= 3.020634712373381E-01
 LT= 1.098728791331215E+00 RG= 3.293906050285539E+05 RR=-7.944846674981301E-01
2461139.152777778 = A.D. 2026-Apr-08 15:40:00.0000 TDB 
 X =-9.313171577149860E+04 Y =-2.725432815744106E+05 Z =-1.588414145559971E+05
 VX= 4.118980366786133E-01 VY= 6.439202951649982E-01 VZ= 3.031028895052280E-01
 LT= 1.097136637003419E+00 RG= 3.289132891691088E+05 RR=-7.965692525902661E-01
2461139.159722222 = A.D. 2026-Apr-08 15:50:00.0000 TDB 
 X =-9.288435654923771E+04 Y =-2.721564027862345E+05 Z =-1.586592400795737E+05
 VX= 4.126327203791916E-01 VY= 6.456766766555303E-01 VZ= 3.041459789375026E-01
 LT= 1.095540304269474E+00 RG= 3.284347206550136E+05 RR=-7.986601896823557E-01
2461139.166666667 = A.D. 2026-Apr-08 16:00:00.0000 TDB 
 X =-9.263655648595351E+04 Y =-2.717684683459232E+05 Z =-1.584764386426595E+05
 VX= 4.133675095507515E-01 VY= 6.474391407043617E-01 VZ= 3.051927614596653E-01
 LT= 1.093939780377325E+00 RG= 3.279548956632985E+05 RR=-8.007575177948981E-01
2461139.173611111 = A.D. 2026-Apr-08 16:10:00.0000 TDB 
 X =-9.238831551331693E+04 Y =-2.713794745946855E+05 Z =-1.582930080227771E+05
 VX= 4.141024210174853E-01 VY= 6.492077182864733E-01 VZ= 3.062432592166845E-01
 LT= 1.092335052496879E+00 RG= 3.274738103475983E+05 RR=-8.028612762291569E-01
2461139.180555556 = A.D. 2026-Apr-08 16:20:00.0000 TDB 
 X =-9.213963355292982E+04 Y =-2.709894178549770E+05 Z =-1.581089459840640E+05
 VX= 4.148374714933709E-01 VY= 6.509824408963751E-01 VZ= 3.072974946607778E-01
 LT= 1.090726107718831E+00 RG= 3.269914608378010E+05 RR=-8.049715047900549E-01
2461139.187500000 = A.D. 2026-Apr-08 16:30:00.0000 TDB 
 X =-9.189051051640653E+04 Y =-2.705982944302122E+05 Z =-1.579242502771006E+05
 VX= 4.155726775570288E-01 VY= 6.527633405100060E-01 VZ= 3.083554905313927E-01
 LT= 1.089112933053759E+00 RG= 3.265078432397757E+05 RR=-8.070882437376504E-01
